COSMOS 2433 (720)       
1 32275U 07052A   22140.18815104 -.00000066  00000+0  00000+0 0  9991
2 32275  66.0824   5.6073 0000891 294.3159 242.2533  2.13104135113364
COSMOS 2432 (719)       
1 32276U 07052B   22140.24634775 -.00000066  00000+0  00000+0 0  9992
2 32276  66.0951   5.7092 0010360 340.8980 188.7246  2.13103495113362
COSMOS 2434 (721)       
1 32393U 07065A   22140.56974145  .00000001  00000+0  00000+0 0  9997
2 32393  64.3888 242.3768 0003130  89.7281 269.0547  2.13103248112071
COSMOS 2436 (723)       
1 32395U 07065C   22139.92141977  .00000010  00000+0  00000+0 0  9996
2 32395  64.3983 242.4551 0015159   2.7713 354.5348  2.13103063111993
COSMOS 2456 (730)       
1 36111U 09070A   22140.13191821  .00000062  00000+0  00000+0 0  9999
2 36111  64.3466 122.0265 0006299 303.3581 245.4998  2.13099331 96737
COSMOS 2457 (733)       
1 36112U 09070B   22140.46507763  .00000063  00000+0  00000+0 0  9993
2 36112  64.3296 121.8915 0004161 200.9821  10.5303  2.13101508 96745
COSMOS 2461 (735)       
1 36401U 10007B   22140.35080008 -.00000066  00000+0  00000+0 0  9996
2 36401  65.9687   4.4449 0021753  10.6188 148.1932  2.13103892 95094
COSMOS 2460 (732)       
1 36402U 10007C   22140.43430926 -.00000067  00000+0  00000+0 0  9995
2 36402  65.9556   4.3927 0002514  48.0211 123.0051  2.13106490 95097
COSMOS 2464 (736)       
1 37139U 10041C   22140.29065709  .00000005  00000+0  00000+0 0  9999
2 37139  63.9890 241.4761 0028751  11.7403 351.3743  2.13100869 91156
COSMOS 2476 (744)       
1 37867U 11064A   22139.86598119  .00000062  00000+0  00000+0 0  9993
2 37867  64.6359 123.3813 0023136 241.8502   8.2653  2.13101934 82079
COSMOS 2477 (745)       
1 37868U 11064B   22140.47037186  .00000065  00000+0  00000+0 0  9998
2 37868  64.6438 123.4252 0020530 243.2094 288.6956  2.13101728 82041
COSMOS 2475 (743)       
1 37869U 11064C   22140.36322600  .00000065  00000+0  00000+0 0  9995
2 37869  64.6515 123.4363 0025285 258.8441 148.8421  2.13102036 82059
COSMOS 2485 (747)       
1 39155U 13019A   22139.79910407  .00000062  00000+0  00000+0 0  9997
2 39155  64.8002 123.8052 0023505 237.7489   5.4496  2.13102011 70546
COSMOS 2492 (754)       
1 39620U 14012A   22140.14272183 -.00000065  00000+0  00000+0 0  9995
2 39620  65.8413   4.0868 0013075 333.5276 207.7939  2.13103266 63505
COSMOS 2500 (755)       
1 40001U 14032A   22140.38823870 -.00000066  00000+0  00000+0 0  9994
2 40001  65.7834   3.9430 0004324 189.0293  39.3894  2.13102549 61723
COSMOS 2501 (702K)      
1 40315U 14075A   22140.34555839  .00000004  00000+0  00000+0 0  9993
2 40315  63.6958 242.1530 0017811 207.4088 156.1123  2.13101616 58133
COSMOS 2514 (751)       
1 41330U 16008A   22140.32022640 -.00000066  00000+0  00000+0 0  9995
2 41330  65.5817   3.6431 0007944 204.0580 155.9555  2.13102651 48890
COSMOS 2516 (753)       
1 41554U 16032A   22140.43055000  .00000003  00000+0  00000+0 0  9998
2 41554  63.9220 242.4181 0014060 214.0972 132.7047  2.13106402 46497
COSMOS 2522 (752)       
1 42939U 17055A   22139.76168906  .00000012  00000+0  00000+0 0  9996
2 42939  64.1550 242.8284 0007195 239.0731 171.8804  2.13101996 36243
COSMOS 2527 (756)       
1 43508U 18053A   22139.92403200  .00000063  00000+0  00000+0 0  9991
2 43508  64.9626 123.7947 0009784 243.7619 323.8480  2.13102603 30535
COSMOS 2529 (757)       
1 43687U 18086A   22140.22040701  .00000006  00000+0  00000+0 0  9990
2 43687  64.3703 243.1218 0009021 264.8015  93.5843  2.13102165 27554
COSMOS 2534 (758)       
1 44299U 19030A   22140.51719274  .00000002  00000+0  00000+0 0  9996
2 44299  64.4435 242.9929 0011556 288.0314  72.6317  2.13102101 23212
COSMOS 2544 (759)       
1 44850U 19088A   22140.29853748  .00000065  00000+0  00000+0 0  9991
2 44850  64.9490 123.6357 0014704 264.1209 274.2871  2.13102366 18972
COSMOS 2545 (760)       
1 45358U 20018A   22139.78075001 -.00000066  00000+0  00000+0 0  9992
2 45358  64.9184   4.2931 0006925 255.4632  95.2286  2.13102775 16914
COSMOS 2547 (705K)      
1 46805U 20075A   22140.43212407  .00000004  00000+0  00000+0 0  9991
2 46805  64.6674 242.4121 0006579 243.2601  99.7356  2.13103305 12177
